     2.10           N: GPS NAV DATA                         RINEX VERSION / TYPE
JPS2RIN v.2.0.191   gpsops              20200526 011528 UTC PGM / RUN BY / DATE
    18                                                      LEAP SECONDS
BSHM                                    MARKER NAME         COMMENT
20705M001                               MARKER NUMBER       COMMENT
4395951.1833 3080707.2289 3433498.2609                      COMMENT
This data is provided as a public service by NASA/JPL.      COMMENT
No warranty is expressed or implied regarding suitability   COMMENT
for use.  For further information, contact:                 COMMENT
Dave Stowers, NASA/JPL m/s 238-600                          COMMENT
4800 Oak Grove Drive, Pasadena CA 91109 USA                 COMMENT
                                                            END OF HEADER
30 20  5 25  2  0  0.0-2.273255959153D-04-8.071765478235D-12 0.000000000000D+00
    4.400000000000D+01 2.184375000000D+01 4.733411451301D-09-2.300872429006D+00
    1.041218638420D-06 4.630765528418D-03 1.051276922226D-05 5.153646806717D+03
    9.360000000000D+04-5.215406417847D-08-3.940915514950D-02-3.725290298462D-09
    9.389391370982D-01 1.651562500000D+02-2.870893290103D+00-7.935687696103D-09
   -4.996636701403D-10 1.000000000000D+00 2.107000000000D+03 0.000000000000D+00
    2.000000000000D+00 0.000000000000D+00 3.725290000000D-09 4.400000000000D+01
    8.643000000000D+04 4.000000000000D+00
 4 20  5 25  3 44 32.0-9.376741945744D-05-4.888534022029D-12 0.000000000000D+00
    1.940000000000D+02-4.562500000000D+00 5.034138263494D-09 5.047122847325D-01
   -1.620501279831D-07 7.512239972129D-04 5.235895514488D-06 5.153670923233D+03
    9.987200000000D+04 1.117587089539D-08-1.088214374805D+00-7.264316082001D-08
    9.596225604743D-01 2.737500000000D+02-2.588365856513D+00-8.161054226381D-09
   -2.039370662260D-10 1.000000000000D+00 2.107000000000D+03 0.000000000000D+00
    2.000000000000D+00 0.000000000000D+00-4.190952000000D-09 9.620000000000D+02
    9.276000000000D+04 4.000000000000D+00
17 20  5 25  3 59 44.0 2.701338380575D-04 6.139089236967D-12 0.000000000000D+00
    1.800000000000D+01-2.059375000000D+01 4.104813839116D-09 1.589369407455D+00
   -1.218169927597D-06 1.322629314382D-02 7.953494787216D-07 5.153701354980D+03
    1.007840000000D+05-2.607703208923D-08 2.078494006007D+00-3.036111593246D-07
    9.838006127987D-01 3.740625000000D+02-1.642678349998D+00-8.174269062546D-09
    6.071681481333D-11 1.000000000000D+00 2.107000000000D+03 0.000000000000D+00
    2.000000000000D+00 0.000000000000D+00-1.071021000000D-08 1.800000000000D+01
    9.633000000000D+04 4.000000000000D+00
 4 20  5 25  4  0  0.0-9.377207607031D-05-4.888534022029D-12 0.000000000000D+00
    1.950000000000D+02-4.625000000000D+00 5.051281834735D-09 6.400740128747D-01
   -1.173466444016D-07 7.512166630477D-04 5.271285772324D-06 5.153670907974D+03
    1.008000000000D+05 3.725290298462D-08-1.088222018552D+00-6.705522537231D-08
    9.596223615175D-01 2.737812500000D+02-2.588370189676D+00-8.168554538799D-09
   -1.914365455291D-10 1.000000000000D+00 2.107000000000D+03 0.000000000000D+00
    2.000000000000D+00 0.000000000000D+00-4.190952000000D-09 9.630000000000D+02
    9.366000000000D+04 4.000000000000D+00
 5 20  5 25  4  0  0.0-1.332070678473D-05-6.821210263297D-13 0.000000000000D+00
    1.900000000000D+01-1.293750000000D+01 4.738411659579D-09 2.469301569739D+00
   -6.631016731262D-07 5.888924933970D-03 9.493902325630D-06 5.153666988373D+03
    1.008000000000D+05-3.725290298462D-08-2.199379426833D+00-1.508742570877D-07
    9.524430164347D-01 1.937500000000D+02 7.935419986666D-01-7.830326164515D-09
    5.925246810313D-10 1.000000000000D+00 2.107000000000D+03 0.000000000000D+00
    2.000000000000D+00 0.000000000000D+00-1.117587000000D-08 1.900000000000D+01
    9.366000000000D+04 4.000000000000D+00
 7 20  5 25  4  0  0.0-2.888804301620D-04-8.753886504564D-12 0.000000000000D+00
    7.100000000000D+01 2.784375000000D+01 4.506259132352D-09-1.216012408323D+00
    1.335516571999D-06 1.385667815339D-02 1.000985503197D-05 5.153664186478D+03
    1.008000000000D+05 3.464519977570D-07-6.216711339552D-02 1.676380634308D-08
    9.536143851811D-01 1.818437500000D+02-2.396822108347D+00-7.805325123121D-09
   -6.689564361493D-10 1.000000000000D+00 2.107000000000D+03 0.000000000000D+00
    2.000000000000D+00 0.000000000000D+00-1.117587000000D-08 7.100000000000D+01
    9.366000000000D+04 4.000000000000D+00
 8 20  5 25  4  0  0.0-3.517977893353D-05-1.364242052659D-12 0.000000000000D+00
    8.500000000000D+01-7.437500000000D+00 4.480900933224D-09 1.812163018309D+00
   -4.079192876816D-07 5.342592834495D-03 8.009374141693D-08 5.153670242310D+03
    1.008000000000D+05-3.911554813385D-08 2.005814674895D+00 3.539025783539D-08
    9.694811303005D-01 3.828437500000D+02-7.544282578794D-02-8.373205920493D-09
   -2.892977646988D-11 1.000000000000D+00 2.107000000000D+03 0.000000000000D+00
    2.000000000000D+00 0.000000000000D+00 5.122274000000D-09 8.500000000000D+01
    9.366000000000D+04 4.000000000000D+00
 9 20  5 25  4  0  0.0-2.237465232611D-04-7.162270776462D-12 0.000000000000D+00
    4.100000000000D+01-1.500000000000D+00 5.160214943665D-09 2.019473183210D+00
   -1.583248376846D-07 1.509680063464D-03 5.189329385757D-06 5.153716823578D+03
    1.008000000000D+05-2.048909664154D-08-1.136130067966D+00-5.774199962616D-08
    9.523165076679D-01 2.704687500000D+02 1.808364857266D+00-8.182840848166D-09
   -1.350056235261D-10 1.000000000000D+00 2.107000000000D+03 0.000000000000D+00
    2.000000000000D+00 0.000000000000D+00 1.396984000000D-09 4.100000000000D+01
    9.366000000000D+04 4.000000000000D+00
11 20  5 25  4  0  0.0-2.677901647985D-04 1.068656274583D-11 0.000000000000D+00
    8.000000000000D+00-1.183750000000D+02 5.718452482214D-09-9.745988683205D-01
   -6.195157766342D-06 1.595255988650D-02 3.503635525703D-06 5.153717262268D+03
    1.008000000000D+05-2.328306436539D-07 2.601393365835D+00-1.862645149231D-09
    9.129000452426D-01 2.915937500000D+02 1.984423778484D+00-9.053234246402D-09
    1.071473202588D-11 1.000000000000D+00 2.107000000000D+03 0.000000000000D+00
    2.000000000000D+00 0.000000000000D+00-1.257285000000D-08 8.000000000000D+00
    9.735000000000D+04 4.000000000000D+00
13 20  5 25  4  0  0.0 1.272605732083D-05 3.069544618484D-12 0.000000000000D+00
    8.600000000000D+01-9.500000000000D+00 4.903061375044D-09 9.431061714719D-01
   -3.706663846970D-07 4.113301634789D-03 5.591660737991D-06 5.153651458740D+03
    1.008000000000D+05-1.862645149231D-08-9.932549359349D-01 1.285225152969D-07
    9.675533217252D-01 2.760312500000D+02 1.081746635501D+00-8.168197381064D-09
   -2.471531520637D-10 1.000000000000D+00 2.107000000000D+03 0.000000000000D+00
    2.000000000000D+00 0.000000000000D+00-1.117587000000D-08 8.600000000000D+01
    9.363000000000D+04 4.000000000000D+00
15 20  5 25  4  0  0.0-2.288976684213D-04 2.614797267597D-12 0.000000000000D+00
    9.200000000000D+01 3.156250000000D+00 5.940604592883D-09 8.313553662023D-01
    4.768371582031D-07 1.227672060486D-02 5.185604095459D-06 5.153677331924D+03
    1.008000000000D+05-4.470348358154D-08-1.225596167526D+00 1.452863216400D-07
    9.278124703821D-01 2.636250000000D+02 8.782475945604D-01-8.833582239872D-09
   -1.435774091468D-10 1.000000000000D+00 2.107000000000D+03 0.000000000000D+00
    2.000000000000D+00 0.000000000000D+00-1.071021000000D-08 9.200000000000D+01
    9.669000000000D+04 4.000000000000D+00
19 20  5 25  4  0  0.0-1.542624086142D-04 5.115907697473D-12 0.000000000000D+00
    5.800000000000D+01-2.590625000000D+01 4.104099523647D-09-2.034204589792D+00
   -1.011416316032D-06 9.437899920158D-03 3.669410943985D-07 5.153686414719D+03
    1.008000000000D+05 1.303851604462D-07 2.124154213035D+00 1.434236764908D-07
    9.820123227207D-01 3.766875000000D+02 1.620697877120D+00-8.056049852527D-09
    5.928818387655D-11 1.000000000000D+00 2.107000000000D+03 0.000000000000D+00
    2.000000000000D+00 0.000000000000D+00-1.536682000000D-08 5.800000000000D+01
    9.921000000000D+04 4.000000000000D+00
23 20  5 25  4  0  0.0-1.114266924560D-04 3.183231456205D-12 0.000000000000D+00
    1.500000000000D+01 2.437500000000D+00 5.488085743657D-09-4.117601055183D-01
    2.291053533554D-07 1.423752005212D-02 5.343928933144D-06 5.155127338409D+03
    1.008000000000D+05-7.264316082001D-08-1.144649996067D+00 1.713633537292D-07
    9.431310191354D-01 2.661875000000D+02-2.184865319176D+00-8.575000040314D-09
   -8.964659128322D-11 1.000000000000D+00 2.107000000000D+03 0.000000000000D+00
    2.000000000000D+00 6.300000000000D+01-2.048910000000D-08 1.500000000000D+01
    1.007700000000D+05 4.000000000000D+00
27 20  5 25  4  0  0.0-3.027361817658D-04-1.011812855722D-11 0.000000000000D+00
    9.300000000000D+01-1.321875000000D+01 4.323037214709D-09 1.653221022743D+00
   -7.804483175278D-07 8.284573792480D-03 4.488974809647D-07 5.153664146423D+03
    1.008000000000D+05-1.341104507446D-07 2.020090698486D+00 5.774199962616D-08
    9.779090393910D-01 3.800937500000D+02 5.631192554002D-01-8.365705608075D-09
   -4.107313943255D-11 1.000000000000D+00 2.107000000000D+03 0.000000000000D+00
    2.000000000000D+00 0.000000000000D+00 1.862645000000D-09 9.300000000000D+01
    9.363000000000D+04 4.000000000000D+00
